[{"OBJECT_NAME":"STARLINK-30056","OBJECT_ID":"2023-119W","EPOCH":"2026-03-09T22:00:01.999584","MEAN_MOTION":15.18690363,"ECCENTRICITY":0.00012443,"INCLINATION":43.0005,"RA_OF_ASC_NODE":79.7341,"ARG_OF_PERICENTER":294.9593,"MEAN_ANOMALY":198.4792,"EPHEMERIS_TYPE":0,"CLASSIFICATION_TYPE":"U","NORAD_CAT_ID":57622,"ELEMENT_SET_NO":999,"REV_AT_EPOCH":573,"BSTAR":0.045658013,"MEAN_MOTION_DOT":0.01040204,"MEAN_MOTION_DDOT":0},{"OBJECT_NAME":"FLOCK 4H-25","OBJECT_ID":"2025-276BQ","EPOCH":"2026-03-09T18:21:52.055712","MEAN_MOTION":15.19480848,"ECCENTRICITY":8.716e-5,"INCLINATION":97.4262,"RA_OF_ASC_NODE":144.1192,"ARG_OF_PERICENTER":117.3208,"MEAN_ANOMALY":242.8115,"EPHEMERIS_TYPE":0,"CLASSIFICATION_TYPE":"U","NORAD_CAT_ID":66728,"ELEMENT_SET_NO":999,"REV_AT_EPOCH":1461,"BSTAR":0.00039445995,"MEAN_MOTION_DOT":8.305e-5,"MEAN_MOTION_DDOT":0}]
